RASSVET-3 8             
1 68367U 26061H   26095.50644991  .00064662  31809-6  21764-3 0  9999
2 68367  82.2975  94.2232 0025629  26.9617 333.2979 15.89307193  2039
RASSVET-3 9             
1 68368U 26061J   26095.44163565  .00131706  49699-5  42691-3 0  9997
2 68368  82.2964  94.2913 0024656  27.6163 332.6412 15.90146532  2021
RASSVET-3 10            
1 68369U 26061K   26095.50608036  .00064845  32700-6  21779-3 0  9991
2 68369  82.2975  94.2228 0025455  27.0119 333.2470 15.89357802  2030
RASSVET-3 11            
1 68370U 26061L   26095.50572854  .00063758  27936-6  21382-3 0  9998
2 68370  82.2975  94.2221 0025250  26.9182 333.3393 15.89394058  2035
RASSVET-3 12            
1 68371U 26061M   26095.50540731  .00065308  34937-6  21836-3 0  9994
2 68371  82.2975  94.2217 0025182  26.8813 333.3756 15.89459445  2030
RASSVET-3 13            
1 68372U 26061N   26095.50523770  .00064705  32238-6  21643-3 0  9997
2 68372  82.2975  94.2213 0024995  26.7761 333.4795 15.89458775  2038
RASSVET-3 14            
1 68373U 26061P   26095.44178405  .00069663  55385-6  23226-3 0  9997
2 68373  82.2974  94.2921 0024953  26.8025 333.4529 15.89532021  2023
RASSVET-3 15            
1 68374U 26061Q   26095.50465659  .00064650  32122-6  21539-3 0  9995
2 68374  82.2975  94.2206 0024761  26.6492 333.6046 15.89546749  2033
RASSVET-3 16            
1 68375U 26061R   26094.87274409  .00086531  14894-5  27822-3 0  9994
2 68375  82.2959  94.9290 0024024  30.3095 329.9560 15.90304258  1935
SUPERVIEW NEO-2 OBJECT A
1 68377U 26062A   26095.52569314  .00004115  00000+0  19066-3 0  9999
2 68377  97.4368 103.8665 0006594 225.4786 134.5911 15.20631049  1610
SUPERVIEW NEO-2 OBJECT B
1 68378U 26062B   26090.72162118  .00004270  00000+0  19791-3 0  9995
2 68378  97.4347  99.1253 0008952 250.4427 109.5842 15.20585060   882
CZ-2D R/B               
1 68379U 26062C   26095.51789890  .00012583  00000+0  40181-3 0  9993
2 68379  97.4983 103.9094 0052505  24.9222 335.4537 15.31248963  1620
