CCSDS_OMM_VERS = 2.0
CREATION_DATE  = 
ORIGINATOR     = 

OBJECT_NAME    = RASSVET-3 8
OBJECT_ID      = 2026-061H
CENTER_NAME    = EARTH
REF_FRAME      = TEME
TIME_SYSTEM    = UTC
MEAN_ELEMENT_THEORY = SGP/SGP4

EPOCH          = 2026-04-05T12:09:17.272224
MEAN_MOTION    = 15.89307193
ECCENTRICITY   = .0025629
INCLINATION    = 82.2975
RA_OF_ASC_NODE = 94.2232
ARG_OF_PERICENTER = 26.9617
MEAN_ANOMALY   = 333.2979

EPHEMERIS_TYPE = 0
CLASSIFICATION_TYPE = U
NORAD_CAT_ID   = 68367
ELEMENT_SET_NO = 999
REV_AT_EPOCH   = 203
BSTAR          = .21764E-3
MEAN_MOTION_DOT = .64662E-3
MEAN_MOTION_DDOT = .31809E-6

CCSDS_OMM_VERS = 2.0
CREATION_DATE  = 
ORIGINATOR     = 

OBJECT_NAME    = RASSVET-3 9
OBJECT_ID      = 2026-061J
CENTER_NAME    = EARTH
REF_FRAME      = TEME
TIME_SYSTEM    = UTC
MEAN_ELEMENT_THEORY = SGP/SGP4

EPOCH          = 2026-04-05T10:35:57.320160
MEAN_MOTION    = 15.90146532
ECCENTRICITY   = .0024656
INCLINATION    = 82.2964
RA_OF_ASC_NODE = 94.2913
ARG_OF_PERICENTER = 27.6163
MEAN_ANOMALY   = 332.6412

EPHEMERIS_TYPE = 0
CLASSIFICATION_TYPE = U
NORAD_CAT_ID   = 68368
ELEMENT_SET_NO = 999
REV_AT_EPOCH   = 202
BSTAR          = .42691E-3
MEAN_MOTION_DOT = .131706E-2
MEAN_MOTION_DDOT = .49699E-5

CCSDS_OMM_VERS = 2.0
CREATION_DATE  = 
ORIGINATOR     = 

OBJECT_NAME    = RASSVET-3 10
OBJECT_ID      = 2026-061K
CENTER_NAME    = EARTH
REF_FRAME      = TEME
TIME_SYSTEM    = UTC
MEAN_ELEMENT_THEORY = SGP/SGP4

EPOCH          = 2026-04-05T12:08:45.343104
MEAN_MOTION    = 15.89357802
ECCENTRICITY   = .0025455
INCLINATION    = 82.2975
RA_OF_ASC_NODE = 94.2228
ARG_OF_PERICENTER = 27.0119
MEAN_ANOMALY   = 333.2470

EPHEMERIS_TYPE = 0
CLASSIFICATION_TYPE = U
NORAD_CAT_ID   = 68369
ELEMENT_SET_NO = 999
REV_AT_EPOCH   = 203
BSTAR          = .21779E-3
MEAN_MOTION_DOT = .64845E-3
MEAN_MOTION_DDOT = .327E-6

CCSDS_OMM_VERS = 2.0
CREATION_DATE  = 
ORIGINATOR     = 

OBJECT_NAME    = RASSVET-3 11
OBJECT_ID      = 2026-061L
CENTER_NAME    = EARTH
REF_FRAME      = TEME
TIME_SYSTEM    = UTC
MEAN_ELEMENT_THEORY = SGP/SGP4

EPOCH          = 2026-04-05T12:08:14.945856
MEAN_MOTION    = 15.89394058
ECCENTRICITY   = .002525
INCLINATION    = 82.2975
RA_OF_ASC_NODE = 94.2221
ARG_OF_PERICENTER = 26.9182
MEAN_ANOMALY   = 333.3393

EPHEMERIS_TYPE = 0
CLASSIFICATION_TYPE = U
NORAD_CAT_ID   = 68370
ELEMENT_SET_NO = 999
REV_AT_EPOCH   = 203
BSTAR          = .21382E-3
MEAN_MOTION_DOT = .63758E-3
MEAN_MOTION_DDOT = .27936E-6

CCSDS_OMM_VERS = 2.0
CREATION_DATE  = 
ORIGINATOR     = 

OBJECT_NAME    = RASSVET-3 12
OBJECT_ID      = 2026-061M
CENTER_NAME    = EARTH
REF_FRAME      = TEME
TIME_SYSTEM    = UTC
MEAN_ELEMENT_THEORY = SGP/SGP4

EPOCH          = 2026-04-05T12:07:47.191584
MEAN_MOTION    = 15.89459445
ECCENTRICITY   = .0025182
INCLINATION    = 82.2975
RA_OF_ASC_NODE = 94.2217
ARG_OF_PERICENTER = 26.8813
MEAN_ANOMALY   = 333.3756

EPHEMERIS_TYPE = 0
CLASSIFICATION_TYPE = U
NORAD_CAT_ID   = 68371
ELEMENT_SET_NO = 999
REV_AT_EPOCH   = 203
BSTAR          = .21836E-3
MEAN_MOTION_DOT = .65308E-3
MEAN_MOTION_DDOT = .34937E-6

CCSDS_OMM_VERS = 2.0
CREATION_DATE  = 
ORIGINATOR     = 

OBJECT_NAME    = RASSVET-3 13
OBJECT_ID      = 2026-061N
CENTER_NAME    = EARTH
REF_FRAME      = TEME
TIME_SYSTEM    = UTC
MEAN_ELEMENT_THEORY = SGP/SGP4

EPOCH          = 2026-04-05T12:07:32.537280
MEAN_MOTION    = 15.89458775
ECCENTRICITY   = .0024995
INCLINATION    = 82.2975
RA_OF_ASC_NODE = 94.2213
ARG_OF_PERICENTER = 26.7761
MEAN_ANOMALY   = 333.4795

EPHEMERIS_TYPE = 0
CLASSIFICATION_TYPE = U
NORAD_CAT_ID   = 68372
ELEMENT_SET_NO = 999
REV_AT_EPOCH   = 203
BSTAR          = .21643E-3
MEAN_MOTION_DOT = .64705E-3
MEAN_MOTION_DDOT = .32238E-6

CCSDS_OMM_VERS = 2.0
CREATION_DATE  = 
ORIGINATOR     = 

OBJECT_NAME    = RASSVET-3 14
OBJECT_ID      = 2026-061P
CENTER_NAME    = EARTH
REF_FRAME      = TEME
TIME_SYSTEM    = UTC
MEAN_ELEMENT_THEORY = SGP/SGP4

EPOCH          = 2026-04-05T10:36:10.141920
MEAN_MOTION    = 15.89532021
ECCENTRICITY   = .0024953
INCLINATION    = 82.2974
RA_OF_ASC_NODE = 94.2921
ARG_OF_PERICENTER = 26.8025
MEAN_ANOMALY   = 333.4529

EPHEMERIS_TYPE = 0
CLASSIFICATION_TYPE = U
NORAD_CAT_ID   = 68373
ELEMENT_SET_NO = 999
REV_AT_EPOCH   = 202
BSTAR          = .23226E-3
MEAN_MOTION_DOT = .69663E-3
MEAN_MOTION_DDOT = .55385E-6

CCSDS_OMM_VERS = 2.0
CREATION_DATE  = 
ORIGINATOR     = 

OBJECT_NAME    = RASSVET-3 15
OBJECT_ID      = 2026-061Q
CENTER_NAME    = EARTH
REF_FRAME      = TEME
TIME_SYSTEM    = UTC
MEAN_ELEMENT_THEORY = SGP/SGP4

EPOCH          = 2026-04-05T12:06:42.329376
MEAN_MOTION    = 15.89546749
ECCENTRICITY   = .0024761
INCLINATION    = 82.2975
RA_OF_ASC_NODE = 94.2206
ARG_OF_PERICENTER = 26.6492
MEAN_ANOMALY   = 333.6046

EPHEMERIS_TYPE = 0
CLASSIFICATION_TYPE = U
NORAD_CAT_ID   = 68374
ELEMENT_SET_NO = 999
REV_AT_EPOCH   = 203
BSTAR          = .21539E-3
MEAN_MOTION_DOT = .6465E-3
MEAN_MOTION_DDOT = .32122E-6

CCSDS_OMM_VERS = 2.0
CREATION_DATE  = 
ORIGINATOR     = 

OBJECT_NAME    = RASSVET-3 16
OBJECT_ID      = 2026-061R
CENTER_NAME    = EARTH
REF_FRAME      = TEME
TIME_SYSTEM    = UTC
MEAN_ELEMENT_THEORY = SGP/SGP4

EPOCH          = 2026-04-04T20:56:45.089376
MEAN_MOTION    = 15.90304258
ECCENTRICITY   = .0024024
INCLINATION    = 82.2959
RA_OF_ASC_NODE = 94.9290
ARG_OF_PERICENTER = 30.3095
MEAN_ANOMALY   = 329.9560

EPHEMERIS_TYPE = 0
CLASSIFICATION_TYPE = U
NORAD_CAT_ID   = 68375
ELEMENT_SET_NO = 999
REV_AT_EPOCH   = 193
BSTAR          = .27821581E-3
MEAN_MOTION_DOT = .86531E-3
MEAN_MOTION_DDOT = .1489387E-5

CCSDS_OMM_VERS = 2.0
CREATION_DATE  = 
ORIGINATOR     = 

OBJECT_NAME    = SUPERVIEW NEO-2 OBJECT A
OBJECT_ID      = 2026-062A
CENTER_NAME    = EARTH
REF_FRAME      = TEME
TIME_SYSTEM    = UTC
MEAN_ELEMENT_THEORY = SGP/SGP4

EPOCH          = 2026-04-05T12:36:59.887296
MEAN_MOTION    = 15.20631049
ECCENTRICITY   = .0006594
INCLINATION    = 97.4368
RA_OF_ASC_NODE = 103.8665
ARG_OF_PERICENTER = 225.4786
MEAN_ANOMALY   = 134.5911

EPHEMERIS_TYPE = 0
CLASSIFICATION_TYPE = U
NORAD_CAT_ID   = 68377
ELEMENT_SET_NO = 999
REV_AT_EPOCH   = 161
BSTAR          = .19066E-3
MEAN_MOTION_DOT = .4115E-4
MEAN_MOTION_DDOT = 0

CCSDS_OMM_VERS = 2.0
CREATION_DATE  = 
ORIGINATOR     = 

OBJECT_NAME    = SUPERVIEW NEO-2 OBJECT B
OBJECT_ID      = 2026-062B
CENTER_NAME    = EARTH
REF_FRAME      = TEME
TIME_SYSTEM    = UTC
MEAN_ELEMENT_THEORY = SGP/SGP4

EPOCH          = 2026-03-31T17:19:08.069952
MEAN_MOTION    = 15.20585060
ECCENTRICITY   = .00089524
INCLINATION    = 97.4347
RA_OF_ASC_NODE = 99.1253
ARG_OF_PERICENTER = 250.4427
MEAN_ANOMALY   = 109.5842

EPHEMERIS_TYPE = 0
CLASSIFICATION_TYPE = U
NORAD_CAT_ID   = 68378
ELEMENT_SET_NO = 999
REV_AT_EPOCH   = 88
BSTAR          = .19790811E-3
MEAN_MOTION_DOT = .427E-4
MEAN_MOTION_DDOT = 0

CCSDS_OMM_VERS = 2.0
CREATION_DATE  = 
ORIGINATOR     = 

OBJECT_NAME    = CZ-2D R/B
OBJECT_ID      = 2026-062C
CENTER_NAME    = EARTH
REF_FRAME      = TEME
TIME_SYSTEM    = UTC
MEAN_ELEMENT_THEORY = SGP/SGP4

EPOCH          = 2026-04-05T12:25:46.464960
MEAN_MOTION    = 15.31248963
ECCENTRICITY   = .0052505
INCLINATION    = 97.4983
RA_OF_ASC_NODE = 103.9094
ARG_OF_PERICENTER = 24.9222
MEAN_ANOMALY   = 335.4537

EPHEMERIS_TYPE = 0
CLASSIFICATION_TYPE = U
NORAD_CAT_ID   = 68379
ELEMENT_SET_NO = 999
REV_AT_EPOCH   = 162
BSTAR          = .40181E-3
MEAN_MOTION_DOT = .12583E-3
MEAN_MOTION_DDOT = 0

